{
    "links": {
        "self": "http://www.neowsapp.com/rest/v1/neo/54084704?api_key=iIulBulltgU6a56xZRHN4H3l9WmuAYTsLGpBGhQ2"
    },
    "id": "54084704",
    "neo_reference_id": "54084704",
    "name": "(2020 UV6)",
    "designation": "2020 UV6",
    "nasa_jpl_url": "http://ssd.jpl.nasa.gov/sbdb.cgi?sstr=54084704",
    "absolute_magnitude_h": 27.524,
    "estimated_diameter": {
        "kilometers": {
            "estimated_diameter_min": 0.0083129463,
            "estimated_diameter_max": 0.0185883131
        },
        "meters": {
            "estimated_diameter_min": 8.3129463297,
            "estimated_diameter_max": 18.5883130866
        },
        "miles": {
            "estimated_diameter_min": 0.0051654238,
            "estimated_diameter_max": 0.0115502387
        },
        "feet": {
            "estimated_diameter_min": 27.2734468364,
            "estimated_diameter_max": 60.9852811069
        }
    },
    "is_potentially_hazardous_asteroid": false,
    "close_approach_data": [
        {
            "close_approach_date": "2020-10-17",
            "close_approach_date_full": "2020-Oct-17 01:01",
            "epoch_date_close_approach": 1602896460000,
            "relative_velocity": {
                "kilometers_per_second": "7.1017241816",
                "kilometers_per_hour": "25566.2070539207",
                "miles_per_hour": "15885.8468219209"
            },
            "miss_distance": {
                "astronomical": "0.0113761569",
                "lunar": "4.4253250341",
                "kilometers": "1701848.841025803",
                "miles": "1057479.8338219614"
            },
            "orbiting_body": "Earth"
        }
    ],
    "orbital_data": {
        "orbit_id": "1",
        "orbit_determination_date": "2020-11-02 17:12:30",
        "first_observation_date": "2020-10-23",
        "last_observation_date": "2020-10-23",
        "data_arc_in_days": null,
        "observations_used": 8,
        "orbit_uncertainty": "9",
        "minimum_orbit_intersection": ".00986948",
        "jupiter_tisserand_invariant": "4.046",
        "epoch_osculation": "2459146.5",
        "eccentricity": ".4310052241361988",
        "semi_major_axis": "1.730735310188413",
        "inclination": "2.764488172649132",
        "ascending_node_longitude": "212.7648624842404",
        "orbital_period": "831.657307992274",
        "perihelion_distance": ".9847793499002225",
        "perihelion_argument": "150.2493723782606",
        "aphelion_distance": "2.476691270476604",
        "perihelion_time": "2459122.250359941748",
        "mean_anomaly": "10.49695630288602",
        "mean_motion": ".4328706025190659",
        "equinox": "J2000",
        "orbit_class": {
            "orbit_class_type": "APO",
            "orbit_class_description": "Near-Earth asteroid orbits which cross the Earth’s orbit similar to that of 1862 Apollo",
            "orbit_class_range": "a (semi-major axis) > 1.0 AU; q (perihelion) < 1.017 AU"
        }
    },
    "is_sentry_object": false
}